{
    "CCSDS_OMM_VERS": "3.0",
    "COMMENT": "GENERATED VIA SPACE-TRACK.ORG API",
    "CREATION_DATE": "2025-11-24T07:26:19",
    "ORIGINATOR": "18 SPCS",
    "OBJECT_NAME": "COSMOS 2460 (GLONASS)",
    "OBJECT_ID": "2010-007C",
    "CENTER_NAME": "EARTH",
    "REF_FRAME": "TEME",
    "TIME_SYSTEM": "UTC",
    "MEAN_ELEMENT_THEORY": "SGP4",
    "EPOCH": "2025-11-24T04:25:20.463168",
    "MEAN_MOTION": "2.13106241",
    "ECCENTRICITY": "0.00028820",
    "INCLINATION": "65.5398",
    "RA_OF_ASC_NODE": "321.4004",
    "ARG_OF_PERICENTER": "265.4962",
    "MEAN_ANOMALY": "167.2215",
    "EPHEMERIS_TYPE": "0",
    "CLASSIFICATION_TYPE": "U",
    "NORAD_CAT_ID": "36402",
    "ELEMENT_SET_NO": "999",
    "REV_AT_EPOCH": "12236",
    "BSTAR": "0.00000000000000",
    "MEAN_MOTION_DOT": "-0.00000026",
    "MEAN_MOTION_DDOT": "0.0000000000000",
    "SEMIMAJOR_AXIS": "25507.686",
    "PERIOD": "675.719",
    "APOAPSIS": "19136.902",
    "PERIAPSIS": "19122.200",
    "OBJECT_TYPE": "PAYLOAD",
    "RCS_SIZE": "LARGE",
    "COUNTRY_CODE": "CIS",
    "LAUNCH_DATE": "2010-03-01",
    "SITE": "TTMTR",
    "DECAY_DATE": null,
    "FILE": "4896917",
    "GP_ID": "303365258",
    "TLE_LINE0": "0 COSMOS 2460 (GLONASS)",
    "TLE_LINE1": "1 36402U 10007C   25328.18426462 -.00000026  00000-0  00000+0 0  9994",
    "TLE_LINE2": "2 36402  65.5398 321.4004 0002882 265.4962 167.2215  2.13106241122369"
}